ONEWEB-0136             
1 47282U 20100AA  24136.51630766 -.00000246  00000+0 -71898-3 0  9995
2 47282  87.8929 142.4813 0002591  93.4101 266.7324 13.12443707164627
ONEWEB-0137             
1 47283U 20100AB  24136.54965870  .00000372  00000+0  99790-3 0  9995
2 47283  87.8925 142.5007 0002096  86.4866 273.6502 13.12440544164531
ONEWEB-0138             
1 47284U 20100AC  24136.52901256  .00000134  00000+0  33634-3 0  9993
2 47284  87.8925 142.5172 0002157  89.8302 270.3073 13.12442351164619
ONEWEB-0139             
1 47285U 20100AD  24136.57665760 -.00000335  00000+0 -96545-3 0  9991
2 47285  87.8929 142.4792 0002085  91.4940 268.6428 13.12444623164694
ONEWEB-0140             
1 47286U 20100AE  24136.52265991 -.00000048  00000+0 -16829-3 0  9997
2 47286  87.8924 142.4939 0002211  91.1137 269.0245 13.12445630164656
ONEWEB-0141             
1 47287U 20100AF  24136.54251437  .00000443  00000+0  11956-2 0  9992
2 47287  87.8926 142.4895 0001849  86.5575 273.5765 13.12441827164640
ONEWEB-0142             
1 47288U 20100AG  24136.53615583  .00000373  00000+0  10021-2 0  9992
2 47288  87.8926 142.4832 0002184  84.2212 275.9166 13.12444567164632
ONEWEB-0143             
1 47289U 20100AH  24136.56553820 -.00000116  00000+0 -35878-3 0  9996
2 47289  87.8928 142.4973 0001945  90.0061 270.1291 13.12442820164616
